[{"OBJECT_NAME":"FENGYUN 3H","OBJECT_ID":"2025-219A","EPOCH":"2026-03-09T21:29:42.222912","MEAN_MOTION":14.19932737,"ECCENTRICITY":0.00012969,"INCLINATION":98.6685,"RA_OF_ASC_NODE":11.64,"ARG_OF_PERICENTER":61.8301,"MEAN_ANOMALY":298.3007,"EPHEMERIS_TYPE":0,"CLASSIFICATION_TYPE":"U","NORAD_CAT_ID":65815,"ELEMENT_SET_NO":999,"REV_AT_EPOCH":2329,"BSTAR":7.8784575e-5,"MEAN_MOTION_DOT":1.24e-6,"MEAN_MOTION_DDOT":0},{"OBJECT_NAME":"CZ-4 DEB","OBJECT_ID":"1990-081AJ","EPOCH":"2026-03-09T21:32:31.380288","MEAN_MOTION":14.1298163,"ECCENTRICITY":0.00315274,"INCLINATION":98.8876,"RA_OF_ASC_NODE":55.2143,"ARG_OF_PERICENTER":271.8356,"MEAN_ANOMALY":145.2074,"EPHEMERIS_TYPE":0,"CLASSIFICATION_TYPE":"U","NORAD_CAT_ID":20870,"ELEMENT_SET_NO":999,"REV_AT_EPOCH":81882,"BSTAR":0.00043697484,"MEAN_MOTION_DOT":7.74e-6,"MEAN_MOTION_DDOT":0}]
